COSMOS 2456 [GLONASS-M] 
1 36111U 09070A   26062.42573193  .00000019  00000+0  00000+0 0  9996
2 36111  64.9483  74.5788 0006300 305.6154 173.6630  2.13103384126178
COSMOS 2457 [GLONASS-M] 
1 36112U 09070B   26062.57085889  .00000018  00000+0  00000+0 0  9992
2 36112  64.9335  74.4199 0002182 196.2080 162.7915  2.13100826126179
COSMOS 2460 [GLONASS-M] 
1 36402U 10007C   26062.81058858 -.00000050  00000+0  00000+0 0  9996
2 36402  65.4802 318.0346 0001771  13.0565 170.6086  2.13106025124480
NAVSTAR 65 (USA 213)    
1 36585U 10022A   26062.92419359 -.00000006  00000+0  00000+0 0  9995
2 36585  54.2890 212.8003 0127354  65.8755  55.1962  2.00557227115488
BEIDOU-2 IGSO-1         
1 36828U 10036A   26062.70852657 -.00000147  00000+0  00000+0 0  9994
2 36828  54.2923 163.9165 0054007 218.9612 138.7891  1.00252560 57033
BEIDOU-2 G4             
1 37210U 10057A   26062.90347635 -.00000124  00000+0  00000+0 0  9995
2 37210   3.3855  69.5514 0009097 210.5609   6.8026  1.00272039 56239
BEIDOU-2 IGSO-2         
1 37256U 10068A   26062.54925478 -.00000175  00000+0  00000+0 0  9990
2 37256  47.7339 273.1369 0047361 212.9625 340.0691  1.00258892 55735
BEIDOU-2 IGSO-3         
1 37384U 11013A   26058.90884667 -.00000154  00000+0  00000+0 0  9999
2 37384  62.2642  41.1818 0035029 190.8154 358.7681  1.00294022 54567
GSAT-8                  
1 37605U 11022A   26062.95391659  .00000072  00000+0  00000+0 0  9997
2 37605   1.8592  83.1638 0007394 214.8254 262.1732  1.00272086 52169
BEIDOU-2 IGSO-4         
1 37763U 11038A   26062.71737726 -.00000114  00000+0  00000+0 0  9990
2 37763  54.5893 166.6259 0154374 230.9657 116.5987  1.00265642 53587
GSAT0101 (GALILEO-PFM)  
1 37846U 11060A   26053.46432651 -.00000082  00000+0  00000+0 0  9992
2 37846  57.0318 344.8758 0003975 357.0591   2.9533  1.70475478 89166
GSAT0102 (GALILEO-FM2)  
1 37847U 11060B   26060.06318653 -.00000106  00000+0  00000+0 0  9999
2 37847  57.0301 344.6971 0005422 341.2092 154.1953  1.70475778 89286
COSMOS 2476 [GLONASS-M] 
1 37867U 11064A   26061.08238354  .00000034  00000+0  00000+0 0  9996
2 37867  65.2077  76.4865 0025205 241.1677 195.8820  2.13103599111489
COSMOS 2477 [GLONASS-M] 
1 37868U 11064B   26062.25639741  .00000024  00000+0  00000+0 0  9991
2 37868  65.2151  76.5253 0022241 242.8811 195.4983  2.13102695111505
COSMOS 2475 [GLONASS-M] 
1 37869U 11064C   26062.32646874  .00000024  00000+0  00000+0 0  9995
2 37869  65.2220  76.5435 0028097 254.3538 193.3549  2.13101445111512
BEIDOU-2 IGSO-5         
1 37948U 11073A   26062.55653834 -.00000150  00000+0  00000+0 0  9993
2 37948  47.8694 272.8493 0108574 221.0989 322.8910  1.00272725 52077
LUCH-5A                 
1 37951U 11074B   26062.83352980 -.00000057  00000+0  00000+0 0  9993
2 37951   8.4858  75.3546 0004005 243.8626 309.5287  1.00275356 51997
